STARLINK-1007           
1 44713U 19074A   24198.58334491  .01390166  00000+0  19503-1 0  9995
2 44713  53.0541   2.0722 0001210  69.0296 177.1483 15.53199148258369
STARLINK-1008           
1 44714U 19074B   24198.20388547  .00006051  00000+0  42457-3 0  9998
2 44714  53.0537   6.7963 0001804  53.9279 306.1877 15.06415052258268
STARLINK-1009           
1 44715U 19074C   24198.19283003 -.00000155  00000+0  84939-5 0  9991
2 44715  53.0557   6.8432 0001545  81.4785 278.6379 15.06397061258251
STARLINK-1010           
1 44716U 19074D   24198.21126628  .00004814  00000+0  34172-3 0  9991
2 44716  53.0551   6.7554 0001384  99.3629 260.7516 15.06415384258249
STARLINK-1011           
1 44717U 19074E   24197.81132736  .00005611  00000+0  39511-3 0  9992
2 44717  53.0548  28.5532 0001410  95.5604 264.5546 15.06416138257753
STARLINK-1012           
1 44718U 19074F   24198.18176787  .00001131  00000+0  94778-4 0  9998
2 44718  53.0541   6.8934 0001266  84.5720 275.5413 15.06405540258254
STARLINK-1013           
1 44719U 19074G   24198.18916691  .00010131  00000+0  69799-3 0  9999
2 44719  53.0542   6.8622 0001340  81.5481 278.5660 15.06402810258258
STARLINK-1014           
1 44720U 19074H   24198.16074151  .00015661  00000+0  94269-3 0  9998
2 44720  53.0561   4.4146 0002652  84.2426 275.8867 15.10991364258297
STARLINK-1015           
1 44721U 19074J   24198.47791477  .00007435  00000+0  52872-3 0  9994
2 44721  53.0547   5.7270 0001416  73.2774 286.8370 15.05594557258293
STARLINK-1017           
1 44723U 19074L   24198.48034263  .00009232  00000+0  63765-3 0  9990
2 44723  53.0555   5.5498 0001474  82.3730 277.7426 15.06412343258307
STARLINK-1019           
1 44724U 19074M   24198.44347759  .00001153  00000+0  96312-4 0  9993
2 44724  53.0545   5.7158 0001745  84.3015 275.8173 15.06396870258293
STARLINK-1020           
1 44725U 19074N   24198.51535326  .00002861  00000+0  21088-3 0  9995
2 44725  53.0545  25.3967 0001323  84.4997 275.6143 15.06399484258022
STARLINK-1021           
1 44726U 19074P   24198.50613685  .00000523  00000+0  54027-4 0  9993
2 44726  53.0568   5.4327 0001777  89.8348 270.2844 15.06387791258307
STARLINK-1027           
1 44732U 19074V   24198.23890125  .00003092  00000+0  22632-3 0  9996
2 44732  53.0552  26.6394 0001809  78.6744 281.4448 15.06407344257982
STARLINK-1028           
1 44733U 19074W   24198.17071082  .00006966  00000+0  48590-3 0  9997
2 44733  53.0556   6.9437 0001481  92.8639 267.2519 15.06412455258254
STARLINK-1029           
1 44734U 19074X   24198.51719202  .00019910  00000+0  13524-2 0  9990
2 44734  53.0545 285.3855 0001321  72.6075 287.5058 15.06382874259405
STARLINK-1030           
1 44735U 19074Y   24198.24627814  .00005697  00000+0  40097-3 0  9991
2 44735  53.0547  26.6002 0000946  89.6860 270.4237 15.06404965257987
STARLINK-1031           
1 44736U 19074Z   24198.26102204  .00003015  00000+0  22120-3 0  9994
2 44736  53.0556  26.5371 0001532  92.0504 268.0661 15.06398403257995
STARLINK-1032           
1 44737U 19074AA  24197.80764632  .00012180  00000+0  83446-3 0  9994
2 44737  53.0546  28.5691 0001346  86.6193 273.4950 15.06431693257921
STARLINK-1035           
1 44740U 19074AD  24197.73762140  .00011684  00000+0  80161-3 0  9991
2 44740  53.0549  28.8935 0001500  85.9789 274.1372 15.06416611257746
STARLINK-1036           
1 44741U 19074AE  24197.94771581  .00009952  00000+0  68574-3 0  9993
2 44741  53.0559  27.9404 0001348  82.2211 277.8931 15.06416146257945
STARLINK-1038           
1 44743U 19074AG  24197.86478675  .00012567  00000+0  86028-3 0  9994
2 44743  53.0553  48.3122 0001358  88.1311 271.9833 15.06432266257657
STARLINK-1039           
1 44744U 19074AH  24198.27391293  .00004259  00000+0  30443-3 0  9990
2 44744  53.0540  46.4785 0001137  73.7216 286.3898 15.06424870257717
STARLINK-1041           
1 44746U 19074AK  24198.50566594  .00039353  00000+0  28688-3 0  9997
2 44746  53.0532  16.7236 0002262 290.9326  69.1449 15.72915560258158
STARLINK-1042           
1 44747U 19074AL  24197.96902754  .00010712  00000+0  52013-3 0  9996
2 44747  53.0557  39.6241 0004365 108.2663 251.8806 15.18983188257794
STARLINK-1043           
1 44748U 19074AM  24197.85372396  .00011103  00000+0  76272-3 0  9996
2 44748  53.0546  48.3646 0001253  83.1486 276.9645 15.06417852257657
STARLINK-1046           
1 44751U 19074AQ  24197.86847040  .00012157  00000+0  83315-3 0  9990
2 44751  53.0556  48.2989 0001466  80.2433 279.8722 15.06421004257659
STARLINK-1047           
1 44752U 19074AR  24198.22046912  .00003675  00000+0  26537-3 0  9999
2 44752  53.0553  26.7179 0001211  89.9275 270.1853 15.06416376257988
STARLINK-1048           
1 44753U 19074AS  24198.49138741  .00002223  00000+0  16805-3 0  9996
2 44753  53.0559   5.4998 0002345  82.7427 277.3828 15.06406770258302
STARLINK-1052           
1 44757U 19074AW  24198.47431364  .00021293  00000+0  80311-3 0  9996
2 44757  53.0401   3.6266 0000883 351.9295   8.1689 15.27017966258335
STARLINK-1053           
1 44758U 19074AX  24198.31448106 -.00005014  00000+0 -31797-3 0  9991
2 44758  53.0545  46.3810 0001855  86.4185 273.7016 15.06394455257726
STARLINK-1054           
1 44759U 19074AY  24198.29603402  .00009906  00000+0  68288-3 0  9998
2 44759  53.0544  46.3814 0001344 122.5855 237.5264 15.06406711257721
STARLINK-1055           
1 44760U 19074AZ  24198.42063099  .00150127  00000+0  41014-2 0  9996
2 44760  53.0150 348.9986 0001470  15.6203 344.4843 15.36358099258546
STARLINK-1056           
1 44761U 19074BA  24197.82791793  .00007037  00000+0  49059-3 0  9998
2 44761  53.0561  48.4800 0001433  94.3034 265.8119 15.06416993257484
STARLINK-1057           
1 44762U 19074BB  24198.22784271  .00006879  00000+0  48010-3 0  9996
2 44762  53.0549  26.6810 0001305  80.1535 279.9601 15.06410513257986
STARLINK-1058           
1 44763U 19074BC  24198.28132597  .00004397  00000+0  31373-3 0  9998
2 44763  53.0546  46.7843 0001197  63.0812 297.0300 15.06415455257718
STARLINK-1059           
1 44764U 19074BD  24198.03030918  .00092230  00000+0  19789-2 0  9995
2 44764  53.0781 308.2459 0002327 262.7565  97.3176 15.43974222259108
STARLINK-1060           
1 44765U 19074BE  24198.50797670  .00011728  00000+0  80460-3 0  9991
2 44765  53.0547  25.4270 0002604  85.4708 274.6578 15.06414565258029
STARLINK-1061           
1 44766U 19074BF  24198.30709314  .00004807  00000+0  34131-3 0  9992
2 44766  53.0548  46.3294 0001178 109.4149 250.6968 15.06404954257724
STARLINK-1062           
1 44767U 19074BG  24198.28872086  .00001318  00000+0  10736-3 0  9996
2 44767  53.0544  46.9940 0001278  94.2415 265.8720 15.06410455257719
STARLINK-1063           
1 44768U 19074BH  24197.85741432  .00013362  00000+0  91384-3 0  9999
2 44768  53.0551  48.3455 0001263  83.9352 276.1781 15.06414547257655
STARLINK-1067           
1 44771U 19074BL  24198.31078021  .00001545  00000+0  12260-3 0  9998
2 44771  53.0524  46.3106 0001852 103.5623 256.5572 15.06399838257727
STARLINK-1068           
1 44772U 19074BM  24198.50061029  .00002557  00000+0  19047-3 0  9994
2 44772  53.0560  25.4608 0001537  92.8574 267.2591 15.06402188258025
STARLINK-1073           
1 44914U 20001A   24198.18545582  .00000752  00000+0  69380-4 0  9990
2 44914  53.0547 166.8767 0001441  91.5585 268.5569 15.06402008249183
STARLINK-1084           
1 44915U 20001B   24198.14859388  .00000781  00000+0  71332-4 0  9991
2 44915  53.0548 167.0364 0001436  89.6387 270.4767 15.06401806249180
STARLINK-1098           
1 44917U 20001D   24198.21862424  .00000428  00000+0  47634-4 0  9992
2 44917  53.0543 166.7228 0001399  88.7616 271.3534 15.06404614249198
STARLINK-1099           
1 44918U 20001E   24198.58334491  .00244147  00000+0  11165-2 0  9997
2 44918  53.0398  71.5664 0002599 143.8836 179.6919 15.82529634251299
STARLINK-1102           
1 44920U 20001G   24198.10384500  .00020366  00000+0  57512-3 0  9996
2 44920  53.0507  99.9221 0005757  72.9666 287.1967 15.36356890250130
STARLINK-1103           
1 44921U 20001H   24198.19555648  .00002015  00000+0  15410-3 0  9991
2 44921  53.0538 166.7848 0001388  91.5898 268.5250 15.06409986249164
STARLINK-1104           
1 44922U 20001J   24198.23337641  .00002668  00000+0  19789-3 0  9995
2 44922  53.0547 166.6616 0001283  91.4394 268.6742 15.06406467249192
STARLINK-1106           
1 44923U 20001K   24198.20656253  .00075877  00000+0  25247-2 0  9993
2 44923  53.0142 116.6573 0002972 333.3773  26.7073 15.30491296249894
STARLINK-1111           
1 44924U 20001L   24194.15081271  .00353701  61740-4  81206-3 0  9992
2 44924  53.0451 134.8564 0003101 124.1518  10.2214 15.96810062249273
STARLINK-1112           
1 44925U 20001M   24198.19650636  .00001661  00000+0  13034-3 0  9994
2 44925  53.0546 166.8246 0001315  86.6192 273.4947 15.06408124249185
STARLINK-1113           
1 44926U 20001N   24198.58334491  .00170287  00000+0  16066-2 0  9994
2 44926  53.0480 125.5038 0003755  62.1521 243.8435 15.65999615250482
STARLINK-1114           
1 44927U 20001P   24198.20756493  .00000745  00000+0  68865-4 0  9991
2 44927  53.0535 166.7731 0001321  92.8419 267.2721 15.06404412249199
STARLINK-1123           
1 44930U 20001S   24198.22231080  .00000493  00000+0  51982-4 0  9999
2 44930  53.0547 166.7081 0001444  90.1144 270.0011 15.06403364249195
STARLINK-1128           
1 44931U 20001T   24198.58334491  .00528413  00000+0  29144-2 0  9999
2 44931  53.0303  92.7515 0004324 174.2918 326.4042 15.77650642251003
STARLINK-1130 (DARKSAT) 
1 44932U 20001U   24198.34394355  .00000213  00000+0  33221-4 0  9995
2 44932  53.0550 166.1604 0001468  85.0627 275.0530 15.06399550250443
STARLINK-1144           
1 44933U 20001V   24198.23706152  .00000037  00000+0  21372-4 0  9994
2 44933  53.0551 166.6461 0001331  91.2438 268.8704 15.06399709250482
STARLINK-1071           
